IRIDIUM 119             
1 42959U 17061E   25174.93512323  .00000074  00000+0  19278-4 0  9992
2 42959  86.3993 174.9693 0002586  89.7289 270.4203 14.34218491403464
IRIDIUM 107             
1 42960U 17061F   25174.39600384  .00000038  00000+0  64906-5 0  9998
2 42960  86.3994 175.2135 0002660  80.8959 279.2537 14.34217776403395
IRIDIUM 132             
1 42961U 17061G   25174.40234593  .00000156  00000+0  48692-4 0  9990
2 42961  86.3998 175.1930 0002367  86.1213 274.0253 14.34217600403392
IRIDIUM 136             
1 42962U 17061H   25174.71313456  .00000003  00000+0 -59394-5 0  9995
2 42962  86.3999 175.0681 0002466  88.1510 271.9968 14.34217409403451
IRIDIUM 139             
1 42963U 17061J   25174.71947636  .00000117  00000+0  34888-4 0  9994
2 42963  86.3995 175.1214 0002502  83.8495 276.2986 14.34218238403466
IRIDIUM 125             
1 42964U 17061K   25174.70679220 -.00000054  00000+0 -26441-4 0  9993
2 42964  86.4001 175.1812 0002861  87.5652 272.5871 14.34217049403476
IRIDIUM 135             
1 43070U 17083A   25174.54137934  .00000003  00000+0 -58461-5 0  9990
2 43070  86.3970 111.9642 0002045  85.9460 274.1969 14.34217606392743
IRIDIUM 138             
1 43071U 17083B   25174.56675078  .00000166  00000+0  52042-4 0  9996
2 43071  86.3958 111.6236 0002626  93.8479 266.3017 14.34217799392738
